KUIPER-00027            
1 63740U 25088S   25201.33932714  .00014298  00000+0  38639-3 0  9990
2 63740  51.8716  59.7552 0002078  79.8484 280.2737 15.37982592 12979
KUIPER-00028            
1 63741U 25088T   25201.59084870  .00012794  00000+0  34568-3 0  9996
2 63741  51.8721  58.4387 0001889  63.7741 296.3440 15.38094118 13424
KUIPER-00029            
1 63742U 25088U   25201.31543980  .00009521  00000+0  27037-3 0  9996
2 63742  51.8695  60.3239 0005185  58.2002 301.9489 15.36866258 12903
KUIPER-00030            
1 63743U 25088V   25201.58335648 -.00674118  00000+0 -35836-1 0  9992
2 63743  51.8974  61.7919 0010807  39.6574 120.0304 15.17049640  5914
KUIPER-00031            
1 63744U 25088W   25200.89720437  .00011654  00000+0  32123-3 0  9996
2 63744  51.8699  62.0309 0004165  53.0737 307.0631 15.37564616 12844
KUIPER-00032            
1 63745U 25088X   25200.91274285  .00012714  00000+0  35219-3 0  9992
2 63745  51.8690  62.1240 0004921  43.6012 316.5363 15.37319216 13844
KUIPER-00033            
1 63746U 25088Y   25200.04099945 -.00023878  00000+0 -31263-2 0  9994
2 63746  51.9030  79.7849 0003203 123.2688 236.8581 14.79767267 13001
KUIPER-00034            
1 63747U 25088Z   25201.33399024  .00011002  00000+0  30247-3 0  9995
2 63747  51.8720  59.7185 0002400  73.4136 286.7115 15.37711681 13078
